CUTE-1 (CO-55)          
1 27844U 03031E   26194.45028445  .00000157  00000+0  86848-4 0  9996
2 27844  98.6742 202.6793 0010803 107.1223 253.1140 14.24350896195418
CUBESAT XI-IV (CO-57)   
1 27848U 03031J   26194.52222380  .00000129  00000+0  75510-4 0  9995
2 27848  98.6773 202.4416 0010486 123.7879 236.4299 14.23634004195126
CUBESAT XI-V            
1 28895U 05043F   26194.42545375  .00000720  00000+0  12097-3 0  9991
2 28895  98.3010 350.6030 0015194 120.4468 239.8242 14.72699773105615
CUTE-1.7+APD II (CO-65) 
1 32785U 08021C   26194.56400278  .00003139  00000+0  19898-3 0  9993
2 32785  97.8288 176.5377 0007178 306.1593  53.8971 15.09691192989175
CANX-2                  
1 32790U 08021H   26194.47157108  .00001867  00000+0  13321-3 0  9991
2 32790  97.8656 174.7657 0008883 324.7576  35.3062 15.05800237988760
SEEDS II (CO-66)        
1 32791U 08021J   26194.50259132  .00010586  00000+0  32808-3 0  9995
2 32791  97.7522 193.6748 0002885 159.9785 200.1570 15.33629018991328
SWISSCUBE               
1 35932U 09051B   26194.64576124  .00000489  00000+0  10618-3 0  9993
2 35932  98.4010 102.9928 0007783 123.1717 237.0231 14.62529160893020
BEESAT-1                
1 35933U 09051C   26194.53212848  .00000395  00000+0  89036-4 0  9999
2 35933  98.3938 102.4573 0006030 134.1484 226.0213 14.61760314893033
ITUPSAT1                
1 35935U 09051E   26192.97035851  .00000388  00000+0  90106-4 0  9996
2 35935  98.4023 100.0372 0007861 152.4089 207.7529 14.60475983892353
TISAT 1                 
1 36799U 10035E   26194.37046024  .00012229  00000+0  38992-3 0  9990
2 36799  98.0710 143.2639 0004358 123.2911 236.8747 15.32686930871712
STRAND-1                
1 39090U 13009E   26194.44253241  .00000142  00000+0  62098-4 0  9996
2 39090  98.3932  14.0322 0009320 145.9311 214.2476 14.37178253700832
BRITE-AUSTRIA           
1 39091U 13009F   26194.46679952  .00000086  00000+0  43851-4 0  9993
2 39091  98.4006  13.2537 0010666 155.6045 204.5649 14.36552090700829
NEE-01 PEGASO           
1 39151U 13018B   26194.39084083  .00001042  00000+0  10395-3 0  9996
2 39151  98.1250 339.4132 0013672  79.6258 280.6501 14.93784279714612
POPACS 2                
1 39269U 13055E   26194.20595882  .00013879 -91286-6  22645-3 0  9997
2 39269  80.9920 114.4009 0415091 110.2648 254.3692 14.91964314667091
POPACS 3                
1 39270U 13055F   26194.43169832  .00008706  00000+0  20653-3 0  9992
2 39270  80.9985 200.7186 0549007 350.0516   9.0141 14.56630802642373
ZACUBE-1 (TSHEPISOSAT)  
1 39417U 13066B   26194.46840326  .00001341  00000+0  10703-3 0  9997
2 39417  97.8010 156.9353 0043931 160.7484 199.5412 15.01324440684679
WNISAT-1                
1 39423U 13066H   26194.35733463  .00000645  00000+0  12514-3 0  9993
2 39423  97.7231 341.6602 0163777 149.0734 212.0239 14.58117494670548
TRITON-1                
1 39427U 13066M   26194.63222047  .00000566  00000+0  73577-4 0  9998
2 39427  97.8229 103.8356 0090448 147.1473 213.5408 14.81789694678003
GOMX-1                  
1 39430U 13066Q   26194.60518111  .00000859  00000+0  13537-3 0  9993
2 39430  97.6474  33.4013 0128437 353.3274   6.6217 14.69540867673798
CUBEBUG-2 (LO-74)       
1 39440U 13066AA  26194.38680765  .00001928  00000+0  18138-3 0  9994
2 39440  97.8910 143.4812 0055889 301.4913  58.0852 14.93959550680906
NEE-02 KRYSAOR          
1 39441U 13066AB  26194.39078792  .00001249  00000+0  14151-3 0  9994
2 39441  97.8898 133.4211 0065594 345.2283  14.7014 14.86734463680099
FUNCUBE-1 (AO-73)       
1 39444U 13066AE  26194.43695187  .00003565  00000+0  22113-3 0  9995
2 39444  97.8287 166.4387 0038020 113.3139 247.2098 15.09805136683621
UWE-3                   
1 39446U 13066AG  26194.41549099  .00001852  00000+0  16195-3 0  9995
2 39446  97.8702 150.6713 0047493 230.6805 129.0202 14.97191819681501
BRITE-CA1 (TORONTO)     
1 40020U 14033L   26194.60386542  .00000524  00000+0  86343-4 0  9991
2 40020  97.9769 323.0497 0078321 191.3587 168.5856 14.72720611646105
DUCHIFAT-1              
1 40021U 14033M   26194.64138550  .00093289  00000+0  74874-3 0  9995
2 40021  98.0437 257.6444 0002178 255.1227 104.9792 15.70712064659896
NANOSATC-BR1            
1 40024U 14033Q   26194.59493296  .00010162  00000+0  32852-3 0  9992
2 40024  98.0713 229.3376 0005339 101.9900 258.1938 15.32294510658021
QB50P1                  
1 40025U 14033R   26194.50911713  .00004875  00000+0  23878-3 0  9995
2 40025  98.0963 207.5077 0010348 130.1673 230.0467 15.18650045657020
QB50P2                  
1 40032U 14033Y   26194.44751392  .00003667  00000+0  19750-3 0  9993
2 40032  98.0758 192.9699 0009357  88.7327 271.4976 15.15492857656642
PERSEUS-M2              
1 40037U 14033AD  26194.62493274  .00001471  00000+0  13795-3 0  9994
2 40037  97.9971 145.7062 0010712 204.2039 155.8679 14.95589012654734
PERSEUS-M1              
1 40039U 14033AF  26194.39507827  .00001321  00000+0  12405-3 0  9991
2 40039  97.9652 138.9596 0010803 202.5697 157.5050 14.95711497654556
